TERA_L_00006001-01
1 51328U 25509LP  26070.40777778  .00000000  00000+0  00000-0 0  9991
2 51328  80.0000   0.0000 0000000   0.0000   0.0000  4.98349170    15
TERA_L_00006001-02
1 51329U 26096GX  26070.40777778  .00000000  00000+0  00000-0 0  9994
2 51329  80.0000   0.0000 0000000   0.0000  45.0000  4.98349170    15
TERA_L_00006001-03
1 51330U 24955NW  26070.40777778  .00000000  00000+0  00000-0 0  9998
2 51330  80.0000   0.0000 0000000   0.0000  90.0000  4.98349170    17
TERA_L_00006001-04
1 51331U 24414SU  26070.40777778  .00000000  00000+0  00000-0 0  9999
2 51331  80.0000   0.0000 0000000   0.0000 135.0000  4.98349170    18
TERA_L_00006001-05
1 51332U 25693FC  26070.40777778  .00000000  00000+0  00000-0 0  9990
2 51332  80.0000   0.0000 0000000   0.0000 180.0000  4.98349170    19
TERA_L_00006001-06
1 51333U 24154QN  26070.40777778  .00000000  00000+0  00000-0 0  9992
2 51333  80.0000   0.0000 0000000   0.0000 225.0000  4.98349170    10
TERA_L_00006001-07
1 51334U 26744IX  26070.40777778  .00000000  00000+0  00000-0 0  9990
2 51334  80.0000   0.0000 0000000   0.0000 270.0000  4.98349170    11
TERA_L_00006001-08
1 51335U 25645BY  26070.40777778  .00000000  00000+0  00000-0 0  9990
2 51335  80.0000   0.0000 0000000   0.0000 315.0000  4.98349170    12
TERA_L_00006002-01
1 51336U 25854YY  26070.40777778  .00000000  00000+0  00000-0 0  9993
2 51336  80.0000 180.0000 0000000   0.0000  90.0000  4.98349170    12
TERA_L_00006002-02
1 51337U 24636NO  26070.40777778  .00000000  00000+0  00000-0 0  9991
2 51337  80.0000 180.0000 0000000   0.0000 135.0000  4.98349170    13
TERA_L_00006002-03
1 51338U 25169EW  26070.40777778  .00000000  00000+0  00000-0 0  9994
2 51338  80.0000 180.0000 0000000   0.0000 180.0000  4.98349170    14
TERA_L_00006002-04
1 51339U 22923OJ  26070.40777778  .00000000  00000+0  00000-0 0  9990
2 51339  80.0000 180.0000 0000000   0.0000 225.0000  4.98349170    15
TERA_L_00006002-05
1 51340U 22185GQ  26070.40777778  .00000000  00000+0  00000-0 0  9992
2 51340  80.0000 180.0000 0000000   0.0000 270.0000  4.98349170    17
TERA_L_00006002-06
1 51341U 24679HQ  26070.40777778  .00000000  00000+0  00000-0 0  9993
2 51341  80.0000 180.0000 0000000   0.0000 315.0000  4.98349170    18
TERA_L_00006002-07
1 51342U 24811TE  26070.40777778  .00000000  00000+0  00000-0 0  9992
2 51342  80.0000 180.0000 0000000   0.0000   0.0000  4.98349170    10
TERA_L_00006002-08
1 51343U 24698PW  26070.40777778  .00000000  00000+0  00000-0 0  9996
2 51343  80.0000 180.0000 0000000   0.0000  45.0000  4.98349170    10
